CRE (WAAS/PRN 138)      
1 28868U 05036A   22267.53159722 -.00000075  00000+0  00000+0 0  9990
2 28868   0.8046  92.7115 0002407  47.0142 307.6901  1.00272401 32792
IOR-W (EGNOS/PRN 126)   
1 28899U 05044A   22266.93105029  .00000011  00000+0  00000+0 0  9996
2 28899   3.5761  38.1862 0002631 156.6358 207.0187  1.00272255 61864
QZS-1 (QZSS/PRN 183)    
1 37158U 10045A   22267.54184815 -.00000129  00000+0  00000+0 0  9990
2 37158  42.4334 132.0205 0745309 270.2182 293.2338  1.00286240 44088
GSAT-8 (GAGAN/PRN 127)  
1 37605U 11022A   22267.17050597  .00000082  00000+0  00000+0 0  9998
2 37605   0.0139 169.5229 0005874  83.2062 226.7409  1.00274078 39567
LUCH 5A (SDCM/PRN 140)  
1 37951U 11074B   22267.60900157 -.00000043  00000+0  00000+0 0  9991
2 37951   5.2621  95.8017 0004076  58.4286 235.4064  1.00273989 39536
SES-5 (EGNOS/PRN 136)   
1 38652U 12036A   22267.23233098  .00000032  00000+0  00000+0 0  9998
2 38652   0.0671 293.4315 0001859 250.3771 267.8709  1.00270989 30823
GSAT-10 (GAGAN/PRN 128) 
1 38779U 12051B   22267.58030053 -.00000166  00000+0  00000+0 0  9998
2 38779   0.0132 201.5483 0002914  33.3813  60.3961  1.00271230 36462
LUCH 5B (SDCM/PRN 125)  
1 38977U 12061A   22267.22814537 -.00000131  00000+0  00000+0 0  9999
2 38977   7.5010  61.8533 0005024 101.0536 265.9992  1.00272586 36521
ASTRA 5B (EGNOS/PRN 123)
1 39617U 14011B   22267.20327041  .00000153  00000+0  00000+0 0  9998
2 39617   0.0097 314.3590 0003481 232.2520 281.0752  1.00271380 31013
LUCH 5V (SDCM/PRN 141)  
1 39727U 14023A   22267.41926333 -.00000269  00000+0  00000+0 0  9994
2 39727   1.7274  76.4396 0003122 126.1306  46.3696  1.00272599 30702
GSAT-15 (GAGAN/PRN 139) 
1 41028U 15065A   22267.10641372 -.00000260  00000+0  00000+0 0  9992
2 41028   0.0235 107.0264 0002144  41.2195 346.4916  1.00271019 25157
E 117 W B (WAAS/PRN 131)
1 41589U 16038B   22267.51962958 -.00000013  00000+0  00000+0 0  9992
2 41589   0.0411  17.2663 0000136 102.4504 313.6772  1.00273203 23019
SES-15 (WAAS/PRN 133)   
1 42709U 17026A   22266.65163696  .00000057  00000+0  00000+0 0  9998
2 42709   0.0182 354.9110 0000284 199.2233 273.7842  1.00268917 20482
QZS-2 (QZSS/PRN 184)    
1 42738U 17028A   22267.32469109 -.00000148  00000+0  00000+0 0  9997
2 42738  41.6136 262.7712 0749933 270.3624  86.9342  1.00260510 19493
QZS-3 (QZSS/PRN 189)    
1 42917U 17048A   22267.53208238 -.00000349  00000+0  00000+0 0  9998
2 42917   0.0619 214.5998 0001330 336.9119 130.4425  1.00274534 18608
QZS-4 (QZSS/PRN 185)    
1 42965U 17062A   22267.50359436 -.00000306  00000+0  00000+0 0  9994
2 42965  40.7459   0.8512 0748602 269.6830  52.8773  1.00280046 18152
GALAXY 30 (WAAS/PRN 135)
1 46114U 20056C   22267.51125934  .00000036  00000+0  00000+0 0  9995
2 46114   0.0257 187.0256 0002396   3.5238 231.8261  1.00271118  7632
